OBJECT_NAME,OBJECT_ID,EPOCH,MEAN_MOTION,ECCENTRICITY,INCLINATION,RA_OF_ASC_NODE,ARG_OF_PERICENTER,MEAN_ANOMALY,EPHEMERIS_TYPE,CLASSIFICATION_TYPE,NORAD_CAT_ID,ELEMENT_SET_NO,REV_AT_EPOCH,BSTAR,MEAN_MOTION_DOT,MEAN_MOTION_DDOT
STARLINK-37799,2026-119X,2026-06-15T11:37:10.199712,15.80861353,.0001018,97.2818,192.2654,158.3270,201.8041,0,U,69317,999,252,.80769E-3,.157722E-2,0
STARLINK-37802,2026-119Y,2026-06-15T11:34:15.080736,15.80898879,.0001463,97.2811,192.2690,165.7922,194.3388,0,U,69318,999,377,.1075E-2,.211652E-2,0
STARLINK-37803,2026-119Z,2026-06-15T12:00:02.000160,15.66324444,.000209,97.2841,192.2546,103.9493,282.8813,0,U,69319,999,372,-.26831E-1,-.2429428E-1,0
GUOWANG TEST OBJECT A,2026-120A,2026-06-07T11:06:12.288672,15.38803685,.00095994,54.9967,71.5399,294.3963,65.6063,0,U,69320,999,119,.24095813E-3,.9002E-4,0
GUOWANG TEST OBJECT B,2026-120B,2026-06-14T22:19:12.387072,15.38665463,.0009837,54.9982,37.8967,323.9642,36.0722,0,U,69321,999,234,.26028E-3,.9712E-4,0
GUOWANG TEST OBJECT C,2026-120C,2026-06-07T21:56:00.773376,15.39284097,.00098504,54.9968,69.4792,309.3319,50.6835,0,U,69322,999,126,.41735581E-3,.16153E-3,0
GUOWANG TEST OBJECT D,2026-120D,2026-06-14T22:13:54.314112,15.38988640,.0011155,54.9977,37.8718,337.9003,22.1543,0,U,69323,999,234,.12953E-3,.4686E-4,0
QIANFAN-163,2026-121A,2026-06-07T22:57:09.243936,13.60351284,.00192,89.0167,301.4498,214.2671,145.7248,0,U,69325,999,90,.25988E-4,.32E-6,0
QIANFAN-164,2026-121B,2026-06-11T09:53:52.001952,13.60355109,.0019383,89.0157,301.0998,205.3125,154.7084,0,U,69326,999,137,.13228E-3,.112E-5,0
SZ-22 MODULE,2025-272C,2026-06-15T04:35:40.473024,15.60144499,.00064006,41.4806,334.2405,69.8006,290.3520,0,U,69328,999,301,.21490186E-3,.17688E-3,0
STARLINK-37733,2026-122A,2026-06-15T12:00:02.000160,15.80742925,.0000313,97.2837,195.8444,113.1936,146.6798,0,U,69329,999,308,.15281E-2,.301935E-2,0
STARLINK-37772,2026-122B,2026-06-15T12:00:02.000160,15.80718269,.0001066,97.2838,195.8567,95.3970,194.3258,0,U,69330,999,303,.16418E-2,.32489E-2,0
STARLINK-37768,2026-122C,2026-06-15T12:00:02.000160,15.80781753,.0001019,97.2837,195.8593,117.4534,181.7033,0,U,69331,999,303,.43662E-3,.84168E-3,0
STARLINK-37833,2026-122D,2026-06-15T12:00:02.000160,15.80721656,.000081,97.2837,195.8621,98.3400,203.6106,0,U,69332,999,303,.1614E-2,.319246E-2,0
STARLINK-37818,2026-122E,2026-06-15T12:00:02.000160,15.80843140,.0001035,97.2837,195.8569,106.2519,184.6500,0,U,69333,999,308,-.10743E-3,-.20696E-3,0
STARLINK-37868,2026-122F,2026-06-15T12:00:02.000160,15.80824964,.000079,97.2844,195.8752,97.7354,235.3742,0,U,69334,999,308,.13323E-3,.25462E-3,0
STARLINK-37877,2026-122G,2026-06-15T12:00:02.000160,15.81169966,.0001176,97.2842,195.8739,112.2458,221.5413,0,U,69335,999,308,-.13715E-1,-.2320691E-1,0
STARLINK-37791,2026-122H,2026-06-15T12:00:02.000160,15.80841608,.0000243,97.2832,195.8779,86.1931,256.4705,0,U,69336,999,308,-.22131E-3,-.42374E-3,0
STARLINK-37765,2026-122J,2026-06-15T12:00:02.000160,15.80739931,.0000586,97.2838,195.8805,105.3219,239.4916,0,U,69337,999,313,.15816E-2,.312859E-2,0
STARLINK-37788,2026-122K,2026-06-15T12:00:02.000160,15.80828013,.0001325,97.2837,195.8809,92.7134,256.0478,0,U,69338,999,308,-.14776E-1,-.244093E-1,0
STARLINK-37743,2026-122L,2026-06-15T12:00:02.000160,15.80743272,.0000798,97.2834,195.8759,106.4935,228.9589,0,U,69339,999,308,.16149E-2,.319741E-2,0
STARLINK-37780,2026-122M,2026-06-15T12:00:02.000160,15.80835236,.0001126,97.2840,195.8776,104.6668,236.3214,0,U,69340,999,313,-.1109E-3,-.2135E-3,0
STARLINK-37781,2026-122N,2026-06-15T12:00:02.000160,15.80935928,.0001656,97.2833,195.8726,127.9663,201.8949,0,U,69341,999,308,-.14519E-1,-.2415299E-1,0
STARLINK-37782,2026-122P,2026-06-15T12:00:02.000160,15.80778397,.0000714,97.2841,195.8981,91.4555,295.7372,0,U,69342,999,308,.69599E-3,.135021E-2,0
STARLINK-37776,2026-122Q,2026-06-15T12:00:02.000160,15.80815560,.0001332,97.2839,195.9007,85.6329,307.0342,0,U,69343,999,308,.14834E-3,.28363E-3,0
STARLINK-37786,2026-122R,2026-06-15T12:00:02.000160,15.80913204,.0000866,97.2843,195.9066,82.3240,323.5665,0,U,69344,999,308,-.81986E-3,-.155108E-2,0
STARLINK-37785,2026-122S,2026-06-15T12:00:02.000160,15.80742242,.000117,97.2837,195.9071,90.6614,318.1635,0,U,69345,999,308,.92129E-3,.179399E-2,0
STARLINK-37773,2026-122T,2026-06-15T12:00:02.000160,15.80831337,.0001644,97.2840,195.9047,96.9543,305.1347,0,U,69346,999,313,-.43012E-3,-.81824E-3,0
STARLINK-37744,2026-122U,2026-06-15T12:00:02.000160,15.78737931,.0001443,97.2839,195.9073,84.0722,325.1557,0,U,69347,999,308,-.16173E-1,-.242939E-1,0
