STARLINK-37799          
1 69317U 26119X   26166.48414583  .00157722  00000+0  80769-3 0  9999
2 69317  97.2818 192.2654 0001018 158.3270 201.8041 15.80861353  2523
STARLINK-37802          
1 69318U 26119Y   26166.48211899  .00211652  00000+0  10750-2 0  9990
2 69318  97.2811 192.2690 0001463 165.7922 194.3388 15.80898879  3778
STARLINK-37803          
1 69319U 26119Z   26166.50002315 -.02429428  00000+0 -26831-1 0  9997
2 69319  97.2841 192.2546 0002090 103.9493 282.8813 15.66324444  3723
GUOWANG TEST OBJECT A   
1 69320U 26120A   26158.46264223  .00009002  00000+0  24096-3 0  9996
2 69320  54.9967  71.5399 0009599 294.3963  65.6063 15.38803685  1198
GUOWANG TEST OBJECT B   
1 69321U 26120B   26165.93000448  .00009712  00000+0  26028-3 0  9999
2 69321  54.9982  37.8967 0009837 323.9642  36.0722 15.38665463  2342
GUOWANG TEST OBJECT C   
1 69322U 26120C   26158.91389784  .00016153  00000+0  41736-3 0  9993
2 69322  54.9968  69.4792 0009850 309.3319  50.6835 15.39284097  1266
GUOWANG TEST OBJECT D   
1 69323U 26120D   26165.92632308  .00004686  00000+0  12953-3 0  9993
2 69323  54.9977  37.8718 0011155 337.9003  22.1543 15.38988640  2346
QIANFAN-163             
1 69325U 26121A   26158.95635699  .00000032  00000+0  25988-4 0  9991
2 69325  89.0167 301.4498 0019200 214.2671 145.7248 13.60351284   905
QIANFAN-164             
1 69326U 26121B   26162.41240743  .00000112  00000+0  13228-3 0  9992
2 69326  89.0157 301.0998 0019383 205.3125 154.7084 13.60355109  1373
SZ-22 MODULE            
1 69328U 25272C   26166.19144066  .00017688  00000+0  21490-3 0  9996
2 69328  41.4806 334.2405 0006400  69.8006 290.3520 15.60144499  3011
STARLINK-37733          
1 69329U 26122A   26166.50002315  .00301935  00000+0  15281-2 0  9998
2 69329  97.2837 195.8444 0000313 113.1936 146.6798 15.80742925  3088
STARLINK-37772          
1 69330U 26122B   26166.50002315  .00324890  00000+0  16418-2 0  9998
2 69330  97.2838 195.8567 0001066  95.3970 194.3258 15.80718269  3032
STARLINK-37768          
1 69331U 26122C   26166.50002315  .00084168  00000+0  43662-3 0  9992
2 69331  97.2837 195.8593 0001019 117.4534 181.7033 15.80781753  3030
STARLINK-37833          
1 69332U 26122D   26166.50002315  .00319246  00000+0  16140-2 0  9991
2 69332  97.2837 195.8621 0000810  98.3400 203.6106 15.80721656  3031
STARLINK-37818          
1 69333U 26122E   26166.50002315 -.00020696  00000+0 -10743-3 0  9996
2 69333  97.2837 195.8569 0001035 106.2519 184.6500 15.80843140  3087
STARLINK-37868          
1 69334U 26122F   26166.50002315  .00025462  00000+0  13323-3 0  9998
2 69334  97.2844 195.8752 0000790  97.7354 235.3742 15.80824964  3083
STARLINK-37877          
1 69335U 26122G   26166.50002315 -.02320691  00000+0 -13715-1 0  9998
2 69335  97.2842 195.8739 0001176 112.2458 221.5413 15.81169966  3081
STARLINK-37791          
1 69336U 26122H   26166.50002315 -.00042374  00000+0 -22131-3 0  9990
2 69336  97.2832 195.8779 0000243  86.1931 256.4705 15.80841608  3084
STARLINK-37765          
1 69337U 26122J   26166.50002315  .00312859  00000+0  15816-2 0  9998
2 69337  97.2838 195.8805 0000586 105.3219 239.4916 15.80739931  3130
STARLINK-37788          
1 69338U 26122K   26166.50002315 -.02440930  00000+0 -14776-1 0  9998
2 69338  97.2837 195.8809 0001325  92.7134 256.0478 15.80828013  3083
STARLINK-37743          
1 69339U 26122L   26166.50002315  .00319741  00000+0  16149-2 0  9997
2 69339  97.2834 195.8759 0000798 106.4935 228.9589 15.80743272  3084
STARLINK-37780          
1 69340U 26122M   26166.50002315 -.00021350  00000+0 -11090-3 0  9998
2 69340  97.2840 195.8776 0001126 104.6668 236.3214 15.80835236  3137
STARLINK-37781          
1 69341U 26122N   26166.50002315 -.02415299  00000+0 -14519-1 0  9997
2 69341  97.2833 195.8726 0001656 127.9663 201.8949 15.80935928  3081
STARLINK-37782          
1 69342U 26122P   26166.50002315  .00135021  00000+0  69599-3 0  9996
2 69342  97.2841 195.8981 0000714  91.4555 295.7372 15.80778397  3080
STARLINK-37776          
1 69343U 26122Q   26166.50002315  .00028363  00000+0  14834-3 0  9999
2 69343  97.2839 195.9007 0001332  85.6329 307.0342 15.80815560  3087
STARLINK-37786          
1 69344U 26122R   26166.50002315 -.00155108  00000+0 -81986-3 0  9992
2 69344  97.2843 195.9066 0000866  82.3240 323.5665 15.80913204  3080
STARLINK-37785          
1 69345U 26122S   26166.50002315  .00179399  00000+0  92129-3 0  9990
2 69345  97.2837 195.9071 0001170  90.6614 318.1635 15.80742242  3085
STARLINK-37773          
1 69346U 26122T   26166.50002315 -.00081824  00000+0 -43012-3 0  9995
2 69346  97.2840 195.9047 0001644  96.9543 305.1347 15.80831337  3135
STARLINK-37744          
1 69347U 26122U   26166.50002315 -.02429390  00000+0 -16173-1 0  9998
2 69347  97.2839 195.9073 0001443  84.0722 325.1557 15.78737931  3088
